[{"OBJECT_NAME":"STARLINK-3943","OBJECT_ID":"2022-051AA","EPOCH":"2026-03-09T09:16:12.005184","MEAN_MOTION":15.08833945,"ECCENTRICITY":0.00014326,"INCLINATION":53.217,"RA_OF_ASC_NODE":130.4823,"ARG_OF_PERICENTER":103.149,"MEAN_ANOMALY":256.9662,"EPHEMERIS_TYPE":0,"CLASSIFICATION_TYPE":"U","NORAD_CAT_ID":52557,"ELEMENT_SET_NO":999,"REV_AT_EPOCH":21140,"BSTAR":-2.8406095e-5,"MEAN_MOTION_DOT":-7.4e-6,"MEAN_MOTION_DDOT":0},{"OBJECT_NAME":"OBJECT B","OBJECT_ID":"2024-174B","EPOCH":"2026-03-09T23:26:11.570784","MEAN_MOTION":15.09493991,"ECCENTRICITY":0.00195829,"INCLINATION":97.4508,"RA_OF_ASC_NODE":75.153,"ARG_OF_PERICENTER":270.277,"MEAN_ANOMALY":89.6216,"EPHEMERIS_TYPE":0,"CLASSIFICATION_TYPE":"U","NORAD_CAT_ID":61239,"ELEMENT_SET_NO":999,"REV_AT_EPOCH":8042,"BSTAR":0.00031274192,"MEAN_MOTION_DOT":4.97e-5,"MEAN_MOTION_DDOT":0}]
